ONEWEB-0063             
1 45448U 20020AA  23346.09485795 -.00000411  00000+0 -11943-2 0  9991
2 45448  87.8979 203.5003 0001647  76.0571 284.0740 13.11415686182363
ONEWEB-0019             
1 45449U 20020AB  23346.14520024  .00000508  00000+0  13981-2 0  9992
2 45449  87.8975 203.4872 0001649  85.6674 274.4642 13.11416504182224
ONEWEB-0094             
1 45450U 20020AC  23346.23626548 -.00007185  00000+0 -18541-1 0  9998
2 45450  87.9152 188.3517 0001200  84.7434 275.3835 13.17692199185429
ONEWEB-0087             
1 45451U 20020AD  23346.10134277 -.00000509  00000+0 -14717-2 0  9993
2 45451  87.8968 203.4822 0001176  80.2641 279.8620 13.11415632182264
ONEWEB-0082             
1 45452U 20020AE  23345.64518546 -.00000430  00000+0 -12501-2 0  9999
2 45452  87.8984 203.5647 0001511  87.7131 272.4170 13.11417028182280
ONEWEB-0050             
1 45453U 20020AF  23345.75408557  .00004193  00000+0  33093-3 0  9990
2 45453  88.0020  76.1450 0024882  33.2432 327.0359 15.00246287203510
ONEWEB-0034             
1 45454U 20020AG  23346.12245337  .00000138  00000+0  35489-3 0  9994
2 45454  87.8980 203.4879 0001389  80.9129 279.2156 13.11419479182279
ONEWEB-0060             
1 45455U 20020AH  23346.13057549  .00000499  00000+0  13727-2 0  9992
2 45455  87.8976 203.4834 0001373  79.3472 280.7810 13.11418797182234
